start=new Date('2023-06-16T00:00:00.000Z').valueOf();
sats=[{"SITE":"AFETR","CENTER_NAME":"EARTH","APOAPSIS":"540.613","RA_OF_ASC_NODE":"24.4421","MEAN_MOTION":"15.08837102","EPHEMERIS_TYPE":"0","TLE_LINE2":"2 53636  53.2173  24.4421 0001242  87.7759 272.3375 15.08837102 45558","SEMIMAJOR_AXIS":"6917.889","OBJECT_TYPE":"PAYLOAD","BSTAR":"0.00000488720000","GP_ID":"234021251","OBJECT_ID":"2022-104BA","INCLINATION":"53.2173","MEAN_MOTION_DOT":"-0.00000210","PERIOD":"95.438","ECCENTRICITY":"0.00012420","OBJECT_NAME":"STARLINK-4586","CLASSIFICATION_TYPE":"U","PERIAPSIS":"538.895","REV_AT_EPOCH":"4555","ELEMENT_SET_NO":"999","ARG_OF_PERICENTER":"87.7759","REF_FRAME":"TEME","TLE_LINE1":"1 53636U 22104BA  23166.62352935 -.00000210  00000-0  48872-5 0  9993","TIME_SYSTEM":"UTC","RCS_SIZE":"LARGE","MEAN_MOTION_DDOT":"0.0000000000000","NORAD_CAT_ID":"53636","COUNTRY_CODE":"US","MEAN_ANOMALY":"272.3375","MEAN_ELEMENT_THEORY":"SGP4","FILE":"3934071","EPOCH":"2023-06-15T14:57:52.935840","DECAY_DATE":null,"LAUNCH_DATE":"2022-08-28"},{"MEAN_ELEMENT_THEORY":"SGP4","MEAN_ANOMALY":"275.6504","LAUNCH_DATE":"2022-08-28","DECAY_DATE":null,"EPOCH":"2023-06-15T00:44:42.644832","FILE":"3933820","NORAD_CAT_ID":"53637","RCS_SIZE":"LARGE","MEAN_MOTION_DDOT":"0.0000000000000","COUNTRY_CODE":"US","REF_FRAME":"TEME","TIME_SYSTEM":"UTC","TLE_LINE1":"1 53637U 22104BB  23166.03104913 -.00000940  00000-0 -40981-4 0  9993","REV_AT_EPOCH":"4546","PERIAPSIS":"538.902","ARG_OF_PERICENTER":"84.4625","ELEMENT_SET_NO":"999","CLASSIFICATION_TYPE":"U","ECCENTRICITY":"0.00012010","OBJECT_NAME":"STARLINK-4396","OBJECT_ID":"2022-104BB","GP_ID":"233989031","PERIOD":"95.437","INCLINATION":"53.2174","MEAN_MOTION_DOT":"-0.00000940","EPHEMERIS_TYPE":"0","TLE_LINE2":"2 53637  53.2174  27.1384 0001201  84.4625 275.6504 15.08844104 45469","MEAN_MOTION":"15.08844104","RA_OF_ASC_NODE":"27.1384","OBJECT_TYPE":"PAYLOAD","BSTAR":"-0.00004098100000","SEMIMAJOR_AXIS":"6917.868","APOAPSIS":"540.564","CENTER_NAME":"EARTH","SITE":"AFETR"},{"OBJECT_NAME":"STARLINK-4594","ECCENTRICITY":"0.00012290","CLASSIFICATION_TYPE":"U","GP_ID":"234022250","OBJECT_ID":"2022-104BC","INCLINATION":"53.2172","MEAN_MOTION_DOT":"0.00000127","PERIOD":"95.437","MEAN_MOTION":"15.08841670","RA_OF_ASC_NODE":"24.0299","EPHEMERIS_TYPE":"0","TLE_LINE2":"2 53638  53.2172  24.0299 0001229  91.3620 268.7513 15.08841670 45560","SEMIMAJOR_AXIS":"6917.875","OBJECT_TYPE":"PAYLOAD","BSTAR":"0.00002603500000","SITE":"AFETR","CENTER_NAME":"EARTH","APOAPSIS":"540.590","MEAN_ANOMALY":"268.7513","MEAN_ELEMENT_THEORY":"SGP4","EPOCH":"2023-06-15T16:06:44.011872","FILE":"3934071","DECAY_DATE":null,"LAUNCH_DATE":"2022-08-28","MEAN_MOTION_DDOT":"0.0000000000000","RCS_SIZE":"LARGE","NORAD_CAT_ID":"53638","COUNTRY_CODE":"US","REF_FRAME":"TEME","TLE_LINE1":"1 53638U 22104BC  23166.67134273  .00000127  00000-0  26035-4 0  9995","TIME_SYSTEM":"UTC","REV_AT_EPOCH":"4556","PERIAPSIS":"538.890","ARG_OF_PERICENTER":"91.3620","ELEMENT_SET_NO":"999"},{"REF_FRAME":"TEME","TLE_LINE1":"1 53639U 22104BD  23166.61984237  .00000354  00000-0  40331-4 0  9990","TIME_SYSTEM":"UTC","REV_AT_EPOCH":"4538","PERIAPSIS":"538.994","ARG_OF_PERICENTER":"86.2057","ELEMENT_SET_NO":"999","MEAN_ANOMALY":"273.9060","MEAN_ELEMENT_THEORY":"SGP4","FILE":"3934071","EPOCH":"2023-06-15T14:52:34.380768","LAUNCH_DATE":"2022-08-28","DECAY_DATE":null,"MEAN_MOTION_DDOT":"0.0000000000000","RCS_SIZE":"LARGE","NORAD_CAT_ID":"53639","COUNTRY_CODE":"US","MEAN_MOTION":"15.08839209","RA_OF_ASC_NODE":"24.4210","EPHEMERIS_TYPE":"0","TLE_LINE2":"2 53639  53.2174  24.4210 0001089  86.2057 273.9060 15.08839209 45381","SEMIMAJOR_AXIS":"6917.883","BSTAR":"0.00004033100000","OBJECT_TYPE":"PAYLOAD","SITE":"AFETR","CENTER_NAME":"EARTH","APOAPSIS":"540.501","ECCENTRICITY":"0.00010890","OBJECT_NAME":"STARLINK-4422","CLASSIFICATION_TYPE":"U","GP_ID":"234022490","OBJECT_ID":"2022-104BD","MEAN_MOTION_DOT":"0.00000354","INCLINATION":"53.2174","PERIOD":"95.438"},{"FILE":"3934071","EPOCH":"2023-06-15T17:58:02.229888","LAUNCH_DATE":"2022-08-28","DECAY_DATE":null,"MEAN_ANOMALY":"267.6087","MEAN_ELEMENT_THEORY":"SGP4","COUNTRY_CODE":"US","MEAN_MOTION_DDOT":"0.0000000000000","RCS_SIZE":"LARGE","NORAD_CAT_ID":"53640","TLE_LINE1":"1 53640U 22104BE  23166.74863692  .00000319  00000-0  38114-4 0  9994","TIME_SYSTEM":"UTC","REF_FRAME":"TEME","ELEMENT_SET_NO":"999","ARG_OF_PERICENTER":"92.5030","PERIAPSIS":"538.992","REV_AT_EPOCH":"4557","ECCENTRICITY":"0.00010890","OBJECT_NAME":"STARLINK-4597","CLASSIFICATION_TYPE":"U","INCLINATION":"53.2181","MEAN_MOTION_DOT":"0.00000319","PERIOD":"95.438","GP_ID":"234020752","OBJECT_ID":"2022-104BE","SEMIMAJOR_AXIS":"6917.880","BSTAR":"0.00003811400000","OBJECT_TYPE":"PAYLOAD","RA_OF_ASC_NODE":"23.8021","MEAN_MOTION":"15.08839982","TLE_LINE2":"2 53640  53.2181  23.8021 0001089  92.5030 267.6087 15.08839982 45573","EPHEMERIS_TYPE":"0","SITE":"AFETR","CENTER_NAME":"EARTH","APOAPSIS":"540.499"},{"MEAN_MOTION":"15.08839719","RA_OF_ASC_NODE":"23.7776","TLE_LINE2":"2 53641  53.2187  23.7776 0001056  91.0279 269.0834 15.08839719 45573","EPHEMERIS_TYPE":"0","SEMIMAJOR_AXIS":"6917.881","BSTAR":"0.00002811200000","OBJECT_TYPE":"PAYLOAD","SITE":"AFETR","APOAPSIS":"540.477","CENTER_NAME":"EARTH","ECCENTRICITY":"0.00010560","OBJECT_NAME":"STARLINK-4588","CLASSIFICATION_TYPE":"U","GP_ID":"234021002","OBJECT_ID":"2022-104BF","MEAN_MOTION_DOT":"0.00000160","INCLINATION":"53.2187","PERIOD":"95.438","REF_FRAME":"TEME","TLE_LINE1":"1 53641U 22104BF  23166.74495341  .00000160  00000-0  28112-4 0  9998","TIME_SYSTEM":"UTC","REV_AT_EPOCH":"4557","PERIAPSIS":"539.016","ARG_OF_PERICENTER":"91.0279","ELEMENT_SET_NO":"999","MEAN_ANOMALY":"269.0834","MEAN_ELEMENT_THEORY":"SGP4","FILE":"3934071","EPOCH":"2023-06-15T17:52:43.974624","DECAY_DATE":null,"LAUNCH_DATE":"2022-08-28","MEAN_MOTION_DDOT":"0.0000000000000","RCS_SIZE":"LARGE","NORAD_CAT_ID":"53641","COUNTRY_CODE":"US"},{"EPOCH":"2023-06-15T17:24:57.873312","FILE":"3934071","DECAY_DATE":null,"LAUNCH_DATE":"2022-08-31","MEAN_ELEMENT_THEORY":"SGP4","MEAN_ANOMALY":"265.6080","COUNTRY_CODE":"US","MEAN_MOTION_DDOT":"0.0000000000000","RCS_SIZE":"LARGE","NORAD_CAT_ID":"53648","TLE_LINE1":"1 53648U 22105A   23166.72566983  .00000515  00000-0  44683-4 0  9990","TIME_SYSTEM":"UTC","REF_FRAME":"TEME","ELEMENT_SET_NO":"999","ARG_OF_PERICENTER":"94.5344","PERIAPSIS":"561.799","REV_AT_EPOCH":"4351","OBJECT_NAME":"STARLINK-4622","ECCENTRICITY":"0.00017430","CLASSIFICATION_TYPE":"U","INCLINATION":"97.6563","MEAN_MOTION_DOT":"0.00000515","PERIOD":"95.919","GP_ID":"234021252","OBJECT_ID":"2022-105A","SEMIMAJOR_AXIS":"6941.144","BSTAR":"0.00004468300000","OBJECT_TYPE":"PAYLOAD","RA_OF_ASC_NODE":"47.8071","MEAN_MOTION":"15.01260901","EPHEMERIS_TYPE":"0","TLE_LINE2":"2 53648  97.6563  47.8071 0001743  94.5344 265.6080 15.01260901 43510","SITE":"AFWTR","APOAPSIS":"564.219","CENTER_NAME":"EARTH"},{"ECCENTRICITY":"0.00018040","OBJECT_NAME":"STARLINK-4386","CLASSIFICATION_TYPE":"U","INCLINATION":"97.6563","MEAN_MOTION_DOT":"0.00000207","PERIOD":"95.919","GP_ID":"234021502","OBJECT_ID":"2022-105B","SEMIMAJOR_AXIS":"6941.144","BSTAR":"0.00002070500000","OBJECT_TYPE":"PAYLOAD","MEAN_MOTION":"15.01260858","RA_OF_ASC_NODE":"47.8045","EPHEMERIS_TYPE":"0","TLE_LINE2":"2 53649  97.6563  47.8045 0001804 102.9627 257.1799 15.01260858 43501","SITE":"AFWTR","CENTER_NAME":"EARTH","APOAPSIS":"564.261","FILE":"3934071","EPOCH":"2023-06-15T17:22:17.793120","LAUNCH_DATE":"2022-08-31","DECAY_DATE":null,"MEAN_ANOMALY":"257.1799","MEAN_ELEMENT_THEORY":"SGP4","COUNTRY_CODE":"US","MEAN_MOTION_DDOT":"0.0000000000000","RCS_SIZE":"LARGE","NORAD_CAT_ID":"53649","TLE_LINE1":"1 53649U 22105B   23166.72381705  .00000207  00000-0  20705-4 0  9995","TIME_SYSTEM":"UTC","REF_FRAME":"TEME","ARG_OF_PERICENTER":"102.9627","ELEMENT_SET_NO":"999","REV_AT_EPOCH":"4350","PERIAPSIS":"561.757"},{"COUNTRY_CODE":"US","RCS_SIZE":"LARGE","MEAN_MOTION_DDOT":"0.0000000000000","NORAD_CAT_ID":"53650","FILE":"3934071","EPOCH":"2023-06-15T17:19:38.098272","LAUNCH_DATE":"2022-08-31","DECAY_DATE":null,"MEAN_ANOMALY":"258.6706","MEAN_ELEMENT_THEORY":"SGP4","ELEMENT_SET_NO":"999","ARG_OF_PERICENTER":"101.4748","PERIAPSIS":"561.589","REV_AT_EPOCH":"4350","TLE_LINE1":"1 53650U 22105C   23166.72196873  .00000262  00000-0  24999-4 0  9997","TIME_SYSTEM":"UTC","REF_FRAME":"TEME","MEAN_MOTION_DOT":"0.00000262","INCLINATION":"97.6562","PERIOD":"95.919","GP_ID":"234022251","OBJECT_ID":"2022-105C","OBJECT_NAME":"STARLINK-4380","ECCENTRICITY":"0.00020530","CLASSIFICATION_TYPE":"U","SITE":"AFWTR","APOAPSIS":"564.439","CENTER_NAME":"EARTH","SEMIMAJOR_AXIS":"6941.149","BSTAR":"0.00002499900000","OBJECT_TYPE":"PAYLOAD","RA_OF_ASC_NODE":"47.8028","MEAN_MOTION":"15.01259235","EPHEMERIS_TYPE":"0","TLE_LINE2":"2 53650  97.6562  47.8028 0002053 101.4748 258.6706 15.01259235 43509"},{"ELEMENT_SET_NO":"999","ARG_OF_PERICENTER":"108.2797","PERIAPSIS":"561.968","REV_AT_EPOCH":"4349","TLE_LINE1":"1 53651U 22105D   23166.65346322  .00000128  00000-0  14595-4 0  9998","TIME_SYSTEM":"UTC","REF_FRAME":"TEME","COUNTRY_CODE":"US","MEAN_MOTION_DDOT":"0.0000000000000","RCS_SIZE":"LARGE","NORAD_CAT_ID":"53651","FILE":"3934071","EPOCH":"2023-06-15T15:40:59.222208","LAUNCH_DATE":"2022-08-31","DECAY_DATE":null,"MEAN_ELEMENT_THEORY":"SGP4","MEAN_ANOMALY":"251.8591","SITE":"AFWTR","CENTER_NAME":"EARTH","APOAPSIS":"564.060","SEMIMAJOR_AXIS":"6941.149","OBJECT_TYPE":"PAYLOAD","BSTAR":"0.00001459500000","RA_OF_ASC_NODE":"47.7353","MEAN_MOTION":"15.01259215","TLE_LINE2":"2 53651  97.6561  47.7353 0001507 108.2797 251.8591 15.01259215 43494","EPHEMERIS_TYPE":"0","MEAN_MOTION_DOT":"0.00000128","INCLINATION":"97.6561","PERIOD":"95.919","GP_ID":"234022491","OBJECT_ID":"2022-105D","ECCENTRICITY":"0.00015070","OBJECT_NAME":"STARLINK-4388","CLASSIFICATION_TYPE":"U"}];
